NSS-10 (AMC-12)         
1 28526U 05003A   20230.15975038 -.00000256  00000-0  00000+0 0  9999
2 28526   1.1590  94.0527 0002719  54.1928 197.8030  1.00270443 56961
XTAR-EUR                
1 28542U 05005A   20230.01431556  .00000147  00000-0  00000+0 0  9994
2 28542   0.0182 109.7269 0002374  44.7238 205.5610  1.00269351 56829
XM-3 (RHYTHM)           
1 28626U 05008A   20230.15038292 -.00000210  00000-0  00000+0 0  9997
2 28626   0.0053 351.3302 0000171 283.4709  20.2139  1.00270182 56709
INMARSAT 4-F1           
1 28628U 05009A   20229.95305385 -.00000264  00000-0  00000+0 0  9995
2 28628   3.2038  27.6679 0002676 128.1652 296.5749  1.00271679 56306
APSTAR 6                
1 28638U 05012A   20229.90674514 -.00000090  00000-0  00000-0 0  9996
2 28638   1.7873  91.5427 0003584  46.7248 316.7818  1.00271157 81023
IRS-P5 (CARTOSAT-1)     
1 28649U 05017A   20230.20215195 -.00000025  00000-0  33187-5 0  9999
2 28649  97.8089 297.7882 0000681 160.0427 200.0813 14.83706369827514
NOAA 18                 
1 28654U 05018A   20230.15150559  .00000085  00000-0  70491-4 0  9995
2 28654  99.0392 287.1332 0015128  62.8702 297.4010 14.12532512785578
DIRECTV 8               
1 28659U 05019A   20229.60245205 -.00000119  00000-0  00000-0 0  9996
2 28659   0.0165 122.6932 0002757  23.7447 295.1287  1.00272683 55763
GALAXY 28 (G-28)        
1 28702U 05022A   20229.83511090 -.00000190  00000-0  00000+0 0  9990
2 28702   0.0038  90.4057 0000427 344.0104 102.9276  1.00272970 55461
EXPRESS-AM3             
1 28707U 05023A   20229.94520262 -.00000328  00000-0  00000-0 0  9993
2 28707   1.9745  90.3161 0002055  11.8009 306.9867  1.00270547 55479
SJ-7                    
1 28737U 05024A   20229.91469829 -.00000120  00000-0 -53255-5 0  9991
2 28737  97.6857 227.6839 0034754  45.9019 314.5053 14.96056863827869
THAICOM 4               
1 28786U 05028A   20229.87663521 -.00000367  00000-0  00000-0 0  9996
2 28786   0.0156  98.0994 0002421  51.0107 251.6924  1.00273018 30900
GALAXY 14 (G-14)        
1 28790U 05030A   20229.68436723  .00000033  00000-0  00000+0 0  9993
2 28790   0.0355 299.5617 0002277 211.7349 295.6006  1.00272805 54940
REIMEI (INDEX)          
1 28810U 05031B   20229.67331561  .00000028  00000-0  91008-5 0  9998
2 28810  98.1477 263.6741 0027815 358.5919   1.5215 14.90550568812322
ANIK F1R                
1 28868U 05036A   20228.89831146 -.00000076  00000-0  00000+0 0  9993
2 28868   0.0223 342.8871 0002012  91.5865 106.3670  1.00272528 54787
NAVSTAR 57 (USA 183)    
1 28874U 05038A   20228.93189727 -.00000074  00000-0  00000-0 0  9997
2 28874  56.3656 357.8157 0135620 266.0527  89.9462  2.00556215109085
GALAXY 15 (G-15)        
1 28884U 05041A   20229.68279699  .00000075  00000-0  00000+0 0  9992
2 28884   0.0472 268.5309 0001765 233.1831 296.5975  1.00271512 54267
SYRACUSE 3A             
1 28885U 05041B   20230.07753948  .00000124  00000-0  00000+0 0  9997
2 28885   0.0319 105.6947 0002822  31.2547 263.8400  1.00273053 54377
BEIJING 1               
1 28890U 05043A   20230.24111657 -.00000034  00000-0  22829-5 0  9999
2 28890  98.0375 357.2682 0016481 110.7958 249.5017 14.61296577789397
SINAH 1                 
1 28893U 05043D   20229.92659871 -.00000032  00000-0  27324-5 0  9993
2 28893  98.0309 358.5302 0016548 111.6804 248.6161 14.61536325789156
CUBESAT XI-V            
1 28895U 05043F   20229.91005168  .00000068  00000-0  21923-4 0  9994
2 28895  98.0178   4.5991 0018194  90.6389 269.6899 14.63790747789453
INMARSAT 4-F2           
1 28899U 05044A   20230.08094168  .00000007  00000-0  00000+0 0  9998
2 28899   3.0568  30.4390 0002698 126.5402 261.9732  1.00271395 54146
TELKOM 2                
1 28902U 05046A   20229.85200525 -.00000142  00000-0  00000+0 0  9995
2 28902   0.0175 102.2169 0001405 339.3632 347.8333  1.00271314 53880
SPACEWAY 2              
1 28903U 05046B   20230.19539073  .00000099  00000-0  00000+0 0  9998
2 28903   0.3243  93.6393 0000292 277.4876 246.3405  1.00272176 54136
COSMOS 2416             
1 28908U 05048A   20229.86526014  .00000025  00000-0  92819-4 0  9991
2 28908  82.4655 229.7981 0006083 241.1732 165.9136 12.55502571671563
METEOSAT-9 (MSG-2)      
1 28912U 05049B   20229.85343045  .00000014  00000-0  00000-0 0  9992
2 28912   4.5480  69.8965 0001906  22.5779 183.9375  1.00277042 53676
EUTELSAT 174A           
1 28924U 05052A   20230.17472028  .00000005  00000-0  00000+0 0  9999
2 28924   0.0670  24.9053 0005967 123.8910  54.1071  1.00272712 53620
ECHOSTAR 10             
1 28935U 06003A   20230.04622181 -.00000060  00000-0  00000+0 0  9993
2 28935   0.0603 280.7557 0001570 171.1622 140.4312  1.00271190 53155
SPAINSAT                
1 28945U 06007A   20229.18042205 -.00000218  00000-0  00000-0 0  9990
2 28945   0.0508 259.2696 0004790 277.4078 183.3258  1.00270624 52848
EUTELSAT HOT BIRD 13E   
1 28946U 06007B   20229.85543686  .00000083  00000-0  00000-0 0  9993
2 28946   0.0626 250.2978 0006632 271.3586 124.9926  1.00273175 52946
JCSAT-5A                
1 29045U 06010A   20229.87916503 -.00000332  00000-0  00000-0 0  9990
2 29045   0.0502 271.9980 0002037 253.7353 248.5446  1.00271520 52395
FORMOSAT-3 FM6          
1 29047U 06011A   20229.75948191  .00000042  00000-0  32872-4 0  9991
2 29047  71.9804 346.9030 0051678 316.6119  43.0954 14.28747597749933
FORMOSAT-3 FM1          
1 29048U 06011B   20230.12973663  .00000043  00000-0  33256-4 0  9995
2 29048  71.9646 256.9866 0045832 275.2777  84.3130 14.28711509752471
FORMOSAT-3 FM5          
1 29049U 06011C   20229.91732329  .00000034  00000-0  29603-4 0  9994
2 29049  72.0199  69.4118 0036441 300.7928  58.9623 14.28792687748231
FORMOSAT-3 FM3          
1 29050U 06011D   20229.41223305  .00000082  00000-0  27731-4 0  9993
2 29050  72.0145 210.4046 0051094 217.8279 141.9280 14.58937964765075
FORMOSAT-3 FM4          
1 29051U 06011E   20229.84610487  .00000057  00000-0  38168-4 0  9990
2 29051  72.0070 331.4954 0068190 181.9400 178.1484 14.28824128750815
FORMOSAT-3 FM2          
1 29052U 06011F   20229.91128889  .00000046  00000-0  34175-4 0  9991
2 29052  72.0344  45.7475 0041670 261.6694  97.9717 14.28929935748331
ASTRA 1KR               
1 29055U 06012A   20230.07204361  .00000115  00000-0  00000+0 0  9996
2 29055   0.0357 250.0663 0003655 300.3511 180.6127  1.00272089 52384
EROS B                  
1 29079U 06014A   20230.24685075  .00001066  00000-0  49728-4 0  9999
2 29079  97.3768 349.5688 0009533 105.8355 315.0374 15.21969973794509
CLOUDSAT                
1 29107U 06016A   20229.85324873  .00000061  00000-0  21436-4 0  9994
2 29107  98.2346 176.9235 0001629 144.7959 215.3350 14.62433624761157
CALIPSO                 
1 29108U 06016B   20229.85268968  .00000062  00000-0  21636-4 0  9990
2 29108  98.2330 176.6942 0001423  75.4222 284.7137 14.62431248761162
GOES 13                 
1 29155U 06018A   20229.86503281  .00000035  00000-0  00000-0 0  9993
2 29155   0.0686 189.2200 0007700  10.0797 139.0231  1.00268923 22008
EUTELSAT 113 WEST A     
1 29162U 06020A   20229.55968359 -.00000040  00000-0  00000-0 0  9998
2 29162   0.0444 283.3396 0003116 227.2178 263.3109  1.00271652 52115
RESURS-DK 1             
1 29228U 06021A   20229.86258826  .00000022  00000-0  89896-5 0  9991
2 29228  69.9360  34.2129 0005243 333.0858  27.0030 15.02558859781829
GALAXY 16 (G-16)        
1 29236U 06023A   20229.60344498 -.00000130  00000-0  00000-0 0  9991
2 29236   0.0271 113.0640 0002479  40.9581 289.6634  1.00269007 51850
GENESIS 1               
1 29252U 06029A   20229.88108965  .00000064  00000-0  12962-4 0  9991
2 29252  64.5233 103.9385 0002736  71.6683 288.4737 15.18192154777279
ARIRANG-2 (KOMPSAT-2)   
1 29268U 06031A   20230.22223959 -.00000074  00000-0 -56488-5 0  9997
2 29268  97.9805 114.4345 0016483 325.4962  34.5168 14.62291050750090
EUTELSAT HOT BIRD 13B   
1 29270U 06032A   20229.85543686  .00000082  00000-0  00000-0 0  9991
2 29270   0.0653 346.9555 0001914 145.6063 154.0687  1.00270484 25951
JCSAT-3A                
1 29272U 06033A   20229.87837991 -.00000349  00000-0  00000-0 0  9998
2 29272   0.0398 265.1875 0002408 251.4185 253.3221  1.00271776 26375
SYRACUSE 3B             
1 29273U 06033B   20229.85186019 -.00000048  00000-0  00000-0 0  9991
2 29273   0.0115 121.2277 0005452  15.4117 130.5274  1.00271255 51347
KOREASAT 5 (MUGUNGWHA 5)
1 29349U 06034A   20229.87541389 -.00000363  00000-0  00000-0 0  9993
2 29349   0.0206 125.7807 0001816  58.7231 209.4143  1.00272378 19956
HINODE (SOLAR-B)        
1 29479U 06041A   20229.93428102  .00000055  00000-0  19243-4 0  9999
2 29479  98.1593 241.2450 0017189 173.7776 186.3644 14.65079404742746
NAVSTAR 58 (USA 190)    
1 29486U 06042A   20227.53562715  .00000092  00000-0  00000+0 0  9998
2 29486  54.8477 236.0565 0095636   6.9879 345.3118  2.00568271101762
DIRECTV 9S              
1 29494U 06043A   20229.60245236 -.00000116  00000-0  00000-0 0  9993
2 29494   0.0203 149.0669 0002883   6.5126 285.5468  1.00272062 30035
OPTUS D1                
1 29495U 06043B   20229.88474814 -.00000115  00000-0  00000-0 0  9999
2 29495   0.0162  90.7024 0003360  58.8340 294.6960  1.00271510 50752
METOP-A                 
1 29499U 06044A   20229.90801083  .00000002  00000-0  20207-4 0  9998
2 29499  98.5178 274.6106 0001813  94.7227   9.4524 14.21487375717295
SJ-6C                   
1 29505U 06046A   20230.16931138 -.00000388  00000-0 -30295-4 0  9990
2 29505  97.8156 243.6806 0004135 175.1275 184.9994 14.94892948752689
SJ-6D                   
1 29506U 06046B   20230.17106138 -.00000429  00000-0 -35311-4 0  9996
2 29506  97.8347 243.8177 0000971 310.5611  49.5540 14.93522008752238
XM-4 (BLUES)            
1 29520U 06049A   20230.15554823 -.00000028  00000-0  00000+0 0  9997
2 29520   0.0127 154.8126 0000073  71.4032  40.4973  1.00272531 50636
DMSP 5D-3 F17 (USA 191) 
1 29522U 06050A   20229.91463617 -.00000032  00000-0  61061-5 0  9998
2 29522  98.8003 245.4019 0010037  12.6522 347.4901 14.14014927711251
